TRANSIT 16 [?]          
1 02807U 67048A   22355.33723103  .00000128  00000+0  18424-3 0  9993
2 02807  89.6592  30.0513 0020905  25.7845 346.6324 13.50346797735993
TRANSIT 17 [?]          
1 02965U 67092A   22355.37373812  .00000109  00000+0  14413-3 0  9992
2 02965  89.2343 108.9698 0048857 151.5578 270.9272 13.53058160723911
TRANSIT 18 [?]          
1 03133U 68012A   22355.55765431  .00000136  00000+0  19129-3 0  9994
2 03133  90.0116 271.6896 0076799  79.4618  92.6709 13.51185030422357
NNSS 19 [?]             
1 04507U 70067A   22356.11019636  .00000120  00000+0  15674-3 0  9999
2 04507  89.9339 237.9666 0171501 200.2846 159.1437 13.50865588575887
NNSS O-20 [?]           
1 06909U 73081A   22356.01797978  .00000234  00000+0  22870-3 0  9999
2 06909  89.8232 273.8840 0158226  95.0463 266.8781 13.70729832654994
TRANSAT [?]             
1 10457U 77106A   22355.41344784  .00000069  00000+0  93528-4 0  9995
2 10457  89.6753 116.4518 0026853  88.9126 337.4828 13.48701022220862
NOVA I [?]              
1 12458U 81044A   22356.38499890  .00000025  00000+0  39105-4 0  9993
2 12458  89.8847 105.5864 0013776 213.6643 212.0894 13.23084809  8477
NOVA 3 [?]              
1 15362U 84110A   22355.45391037  .00000061  00000+0  12535-3 0  9995
2 15362  90.1053  68.7666 0033690  87.6689 283.7504 13.22849917843236
OSCAR 30 [?]            
1 15935U 85066A   22356.25553090  .00000125  00000+0  21347-3 0  9992
2 15935  90.1822  81.1860 0166972 268.6190  99.1140 13.35781247819546
OSCAR 24 [?]            
1 15936U 85066B   22355.52701602  .00000093  00000+0  15729-3 0  9997
2 15936  90.1792  73.0875 0167464 276.5704  93.9656 13.35640235821295
POLAR BEAR [?]          
1 17070U 86088A   22356.43096666  .00000115  00000+0  10806-3 0  9997
2 17070  89.5742 229.0827 0039842 154.2271  18.4838 13.74898571810778
OSCAR 27 [?]            
1 18361U 87080A   22355.52619111  .00000109  00000+0  16462-3 0  9996
2 18361  90.3371  40.4860 0106281  97.9604 263.3621 13.44591561729458
OSCAR 29 [?]            
1 18362U 87080B   22355.39660509  .00000088  00000+0  13071-3 0  9998
2 18362  90.3385  40.8281 0107802 118.6174 253.4907 13.44177943729011
OSCAR 23 [?]            
1 19070U 88033A   22355.99954324  .00000074  00000+0  13646-3 0  9994
2 19070  90.3236 342.7492 0188826 322.7595 100.0128 13.27543800678601
OSCAR 32 [?]            
1 19071U 88033B   22356.04362602  .00000081  00000+0  15076-3 0  9991
2 19071  90.3237 342.8403 0186848 310.3536 117.6431 13.27722889678861
NOVA 11 [?]             
1 19223U 88052A   22356.21107924  .00000078  00000+0  16540-3 0  9997
2 19223  89.9792  80.4063 0032208 126.6573 261.3910 13.22762745666109
OSCAR 25 [?]            
1 19419U 88074A   22355.46401935  .00000125  00000+0  19789-3 0  9994
2 19419  90.0055  18.0188 0098211 107.4484  22.8290 13.42320561680521
OSCAR 31 [?]            
1 19420U 88074B   22355.47459278  .00000113  00000+0  17696-3 0  9992
2 19420  90.0067  18.2149 0096443 101.6701  18.0544 13.42329131680631
